NAVSTAR 77 (USA 289)    
1 43873U 18109A   24100.52255306  .00000050  00000+0  00000+0 0  9992
2 43873  55.2693 123.7397 0028569 195.6685 336.5451  2.00552734 39051
